<?xml version='1.0' encoding='utf-8'?>
<kml xmlns="http://www.opengis.net/kml/2.2"><Document><name>JULES V01 Optimized Network Plan</name><Style id="style_GSM"><PolyStyle><color>ff00ff00</color><fill>1</fill><outline>1</outline></PolyStyle><LineStyle><color>ff00ff00</color><width>2</width></LineStyle></Style><Style id="style_UMTS"><PolyStyle><color>ffff0000</color><fill>1</fill><outline>1</outline></PolyStyle><LineStyle><color>ffff0000</color><width>2</width></LineStyle></Style><Style id="style_LTE"><PolyStyle><color>ff0000ff</color><fill>1</fill><outline>1</outline></PolyStyle><LineStyle><color>ff0000ff</color><width>2</width></LineStyle></Style><Style id="style_NR"><PolyStyle><color>ff00ffff</color><fill>1</fill><outline>1</outline></PolyStyle><LineStyle><color>ff00ffff</color><width>2</width></LineStyle></Style><Folder><name>Site_001</name><Placemark><name>Tower: Site_001</name><Point><coordinates>36.2765,33.5138,0</coordinates></Point></Placemark><Placemark><name>Sector 1 (LTE 1800MHz)</name><styleUrl>#style_LTE</styleUrl><Polygon><tessellate>1</tessellate><outerBoundaryIs><LinearRing><coordinates>36.2765,33.5138,0 36.272169699968345,33.51110638302946,0 36.27190460279632,33.51143130015234,0 36.27167447937178,33.51177424451132,0 36.27148108107296,33.512132606092756,0 36.27132587977768,33.51250365754862,0 36.27121005666151,33.5128845749533,0 36.2711344932083,33.51327245929533,0 36.27109976450156,33.51366435854066,0 36.271106134847706,33.514057290099394,0 36.27115355576457,33.514448263525125,0 36.27124166635034,33.51483430327399,0 36.27136979603025,33.51521247135042,0 36.27153696966007,33.51557988966699,0 36.27174191494754,33.51593376194847,0 36.2765,33.5138,0</coordinates></LinearRing></outerBoundaryIs></Polygon></Placemark><Placemark><name>Sector 2 (LTE 1800MHz)</name><styleUrl>#style_LTE</styleUrl><Polygon><tessellate>1</tessellate><outerBoundaryIs><LinearRing><coordinates>36.2765,33.5138,0 36.27913283515987,33.50986656025518,0 36.2787116371934,33.50969020966011,0 36.27827360733247,33.509545137051084,0 36.27782207924881,33.509432446518254,0 36.27736048934377,33.50935299570462,0 36.27689235059524,33.509307389278845,0 36.27642122582178,33.50929597433338,0 36.27595070056738,33.50931883774284,0 36.27548435581333,33.50937580550287,0 36.275025740724814,33.50946644405443,0 36.27457834563956,33.50959006358341,0 36.27414557550431,33.50974572327055,0 36.27373072396112,33.50993223845163,0 36.27333694828072,33.510148189633526,0 36.2765,33.5138,0</coordinates></LinearRing></outerBoundaryIs></Polygon></Placemark><Placemark><name>Sector 3 (LTE 1800MHz)</name><styleUrl>#style_LTE</styleUrl><Polygon><tessellate>1</tessellate><outerBoundaryIs><LinearRing><coordinates>36.2765,33.5138,0 36.27317066638723,33.51734757173539,0 36.27355417831172,33.517576002674986,0 36.273960109718,33.517775695954214,0 36.27438537122294,33.51794513178665,0 36.274826726329735,33.518083020663276,0 36.2752808160595,33.5181883131665,0 36.275744184515226,33.51826020795679,0 36.276213305183155,33.518298157871385,0 36.27668460777176,33.518301874088515,0 36.27715450538375,33.51827132832553,0 36.27761942181456,33.51820675305412,0 36.27807581876945,33.5181086397311,0 36.27852022279199,33.5179777350581,0 36.278949251699245,33.517815035298725,0 36.2765,33.5138,0</coordinates></LinearRing></outerBoundaryIs></Polygon></Placemark></Folder><Folder><name>Site_002</name><Placemark><name>Tower: Site_002</name><Point><coordinates>36.285,33.52,0</coordinates></Point></Placemark><Placemark><name>Sector 1 (GSM 2100MHz)</name><styleUrl>#style_GSM</styleUrl><Polygon><tessellate>1</tessellate><outerBoundaryIs><LinearRing><coordinates>36.285,33.52,0 36.28723146513032,33.524102393482394,0 36.28765184515604,33.523924641831655,0 36.2880520430389,33.52371702128681,0 36.28842901303136,33.52348111196557,0 36.28877988616416,33.52321870928033,0 36.28910199208088,33.522931810273946,0 36.289392879361024,33.52262259842111,0 36.289650334176734,33.522293427010716,0 36.289872397141416,33.52194680123596,0 36.29005737822181,33.521585359128295,0 36.29020386960021,33.52121185148039,0 36.29031075638878,33.52082912091099,0 36.2903772251145,33.52044008023081,0 36.29040276991024,33.52004769027435,0 36.285,33.52,0</coordinates></LinearRing></outerBoundaryIs></Polygon></Placemark><Placemark><name>Sector 2 (GSM 2100MHz)</name><styleUrl>#style_GSM</styleUrl><Polygon><tessellate>1</tessellate><outerBoundaryIs><LinearRing><coordinates>36.285,33.52,0 36.281762085246434,33.523606057893275,0 36.28215139011912,33.52382760633841,0 36.28256237463303,33.524020024388136,0 36.282991910947864,33.52418184762491,0 36.283436730032896,33.524311844476195,0 36.28389344654631,33.52440902558745,0 36.284358584599666,33.52447265135174,0 36.28482860421151,33.524502237538584,0 36.2852999282488,33.524497558979235,0 36.28576896965101,33.524458651280355,0 36.28623215872986,33.52438581055302,0 36.286685970336784,33.52427959115916,0 36.28712695069142,33.524140801492486,0 36.28755174366701,33.52397049782617,0 36.285,33.52,0</coordinates></LinearRing></outerBoundaryIs></Polygon></Placemark><Placemark><name>Sector 3 (GSM 2100MHz)</name><styleUrl>#style_GSM</styleUrl><Polygon><tessellate>1</tessellate><outerBoundaryIs><LinearRing><coordinates>36.285,33.52,0 36.29035450041597,33.519397360247105,0 36.290271123906464,33.519010589357535,0 36.29014763096124,33.51863134848038,0 36.289984961436176,33.51826252386771,0 36.28978435334458,33.517906922497524,0 36.28954733343516,33.51756725071096,0 36.28927570557255,33.51724609361542,0 36.288971537008784,33.51694589541032,0 36.2886371426503,33.51666894078527,0 36.28827506744008,33.5164173375322,0 36.287888066989105,33.51619300050377,0 36.287479086604485,33.515997637040236,0 36.287051238873886,33.51583273397552,0 36.28660777997688,33.515699546321514,0 36.285,33.52,0</coordinates></LinearRing></outerBoundaryIs></Polygon></Placemark></Folder><Folder><name>Site_003</name><Placemark><name>Tower: Site_003</name><Point><coordinates>36.29,33.51,0</coordinates></Point></Placemark><Placemark><name>Sector 1 (GSM 3500MHz)</name><styleUrl>#style_GSM</styleUrl><Polygon><tessellate>1</tessellate><outerBoundaryIs><LinearRing><coordinates>36.29,33.51,0 36.29302667438466,33.50903252998856,0 36.29291402764948,33.50881626446495,0 36.29277920340434,33.50860900788351,0 36.29262322774317,33.508412337591984,0 36.29244728773492,33.50822775037004,0 36.29225272238931,33.50805665103789,0 36.29204101246607,33.507900341764774,0 36.291813769205575,33.507760012158634,0 36.291572722066235,33.50763673021251,0 36.29131970556234,33.50753143417645,0 36.291056645302255,33.50744492541686,0 36.2907855433334,33.507377862317654,0 36.29050846290545,33.50733075526949,0 36.29022751276778,33.50730396278547,0 36.29,33.51,0</coordinates></LinearRing></outerBoundaryIs></Polygon></Placemark><Placemark><name>Sector 2 (GSM 3500MHz)</name><styleUrl>#style_GSM</styleUrl><Polygon><tessellate>1</tessellate><outerBoundaryIs><LinearRing><coordinates>36.29,33.51,0 36.29231035311098,33.51189572805002,0 36.29249972135587,33.511720621931715,0 36.29267006521186,33.511532420841576,0 36.29282008825937,33.51133255710352,0 36.2929486487324,33.51112255180129,0 36.29305476820814,33.51090400320204,0 36.29313763905329,33.51067857459257,0 36.29319663057069,33.510447981620715,0 36.29323129379927,33.51021397923822,0 36.293241364930935,33.50997834834453,0 36.293226767318274,33.509742882233006,0 36.293187612057956,33.509509372942944,0 36.29312419714514,33.50927959762103,0 36.293037005205605,33.50905530499621,0 36.29,33.51,0</coordinates></LinearRing></outerBoundaryIs></Polygon></Placemark><Placemark><name>Sector 3 (GSM 3500MHz)</name><styleUrl>#style_GSM</styleUrl><Polygon><tessellate>1</tessellate><outerBoundaryIs><LinearRing><coordinates>36.29,33.51,0 36.28806987802291,33.512171337342515,0 36.28830419190537,33.51230333582704,0 36.288551411911385,33.51241780453514,0 36.28880965654744,33.51251387229081,0 36.28907696041592,33.512590807960436,0 36.28935128917298,33.512648026017104,0 36.28963055501113,33.51268509099686,0 36.28991263254873,33.512701720812835,0 36.29019537500538,33.512697788902074,0 36.290476630540276,33.5126733251888,0 36.290754258628965,33.51262851585664,0 36.29102614635405,33.512563701931676,0 36.29129022448577,33.512479376687,0 36.291544483230105,33.51237618188865,0 36.29,33.51,0</coordinates></LinearRing></outerBoundaryIs></Polygon></Placemark></Folder></Document></kml>